ONEWEB-0647             
1 56079U 23043AK  25248.13831768 -.00000023  00000+0 -94212-4 0  9995
2 56079  87.9049 316.1105 0001839  91.7183 268.4158 13.15548655118943
ONEWEB-0651             
1 56080U 23043AL  25248.13356978 -.00000803  00000+0 -21673-2 0  9997
2 56080  87.9059 316.1024 0002264  95.2339 264.9050 13.15543381120149
ONEWEB-0718             
1 56081U 23043AM  25248.12882225 -.00000028  00000+0 -10933-3 0  9993
2 56081  87.9049 316.0850 0001888 115.0721 245.0605 13.15548932118951
ONEWEB-0561             
1 56710U 23068A   25248.27647118 -.00000129  00000+0 -34969-3 0  9992
2 56710  87.9283 331.2500 0002094  85.2263 274.9109 13.20771570111898
ONEWEB-0668             
1 56711U 23068B   25248.16402871  .00000212  00000+0  52201-3 0  9996
2 56711  87.9003 285.5693 0002123 108.2994 251.8368 13.16592359114270
ONEWEB-0676             
1 56712U 23068C   25248.22023380 -.00000048  00000+0 -15994-3 0  9995
2 56712  87.8996 285.5782 0002111  84.8140 275.3232 13.16594161114206
ONEWEB-0677             
1 56713U 23068D   25248.26542798  .00000081  00000+0  16681-3 0  9998
2 56713  87.9284 331.2285 0002178  96.9118 263.2263 13.20771024112193
ONEWEB-0678             
1 56714U 23068E   25248.17318259  .00000199  00000+0  49516-3 0  9995
2 56714  87.9056 316.0488 0001615  89.2040 270.9275 13.15549016111815
ONEWEB-0679             
1 56715U 23068F   25248.11338416  .00000086  00000+0  19008-3 0  9995
2 56715  87.8998 285.5917 0002447  96.7917 263.3492 13.16594942114210
ONEWEB-0680             
1 56716U 23068G   25248.17600369  .00000087  00000+0  18003-3 0  9996
2 56716  87.9220 300.8372 0002374 110.1331 250.0059 13.21825162113449
ONEWEB-0681             
1 56717U 23068H   25248.22964067  .00000013  00000+0  68310-6 0  9999
2 56717  87.9222 300.8432 0002783  79.8034 280.3413 13.21826290113447
ONEWEB-0682             
1 56718U 23068J   25248.19932208  .00000111  00000+0  26165-3 0  9996
2 56718  87.9043 316.0645 0002293 107.7407 252.3974 13.15548839111986
ONEWEB-0683             
1 56719U 23068K   25248.14466298 -.00000007  00000+0 -52400-4 0  9991
2 56719  87.9052 316.0533 0002065 105.0839 255.0520 13.15549053111942
ONEWEB-0684             
1 56720U 23068L   25248.22863444  .00000025  00000+0  33265-4 0  9992
2 56720  87.9036 316.0364 0000489  82.1835 277.9351 13.15549578111786
ONEWEB-0686             
1 56721U 23068M   25248.10307306  .00000202  00000+0  49437-3 0  9994
2 56721  87.8986 285.6243 0001826 103.2551 256.8784 13.16597099114201
ONEWEB-0694             
1 56722U 23068N   25248.14584817  .00000055  00000+0  11048-3 0  9996
2 56722  87.9005 285.5439 0002186 104.7345 255.4028 13.16594738114267
