[{"OBJECT_NAME":"ONEWEB-0647","OBJECT_ID":"2023-043AK","EPOCH":"2025-09-05T03:19:10.647552","MEAN_MOTION":13.15548655,"ECCENTRICITY":0.00018396,"INCLINATION":87.9049,"RA_OF_ASC_NODE":316.1105,"ARG_OF_PERICENTER":91.7183,"MEAN_ANOMALY":268.4158,"EPHEMERIS_TYPE":0,"CLASSIFICATION_TYPE":"U","NORAD_CAT_ID":56079,"ELEMENT_SET_NO":999,"REV_AT_EPOCH":11894,"BSTAR":-9.4212235e-5,"MEAN_MOTION_DOT":-2.3e-7,"MEAN_MOTION_DDOT":0},{"OBJECT_NAME":"ONEWEB-0651","OBJECT_ID":"2023-043AL","EPOCH":"2025-09-05T03:12:20.428992","MEAN_MOTION":13.15543381,"ECCENTRICITY":0.00022648,"INCLINATION":87.9059,"RA_OF_ASC_NODE":316.1024,"ARG_OF_PERICENTER":95.2339,"MEAN_ANOMALY":264.905,"EPHEMERIS_TYPE":0,"CLASSIFICATION_TYPE":"U","NORAD_CAT_ID":56080,"ELEMENT_SET_NO":999,"REV_AT_EPOCH":12014,"BSTAR":-0.0021673032,"MEAN_MOTION_DOT":-8.03e-6,"MEAN_MOTION_DDOT":0},{"OBJECT_NAME":"ONEWEB-0718","OBJECT_ID":"2023-043AM","EPOCH":"2025-09-05T03:05:30.242400","MEAN_MOTION":13.15548932,"ECCENTRICITY":0.00018886,"INCLINATION":87.9049,"RA_OF_ASC_NODE":316.085,"ARG_OF_PERICENTER":115.0721,"MEAN_ANOMALY":245.0605,"EPHEMERIS_TYPE":0,"CLASSIFICATION_TYPE":"U","NORAD_CAT_ID":56081,"ELEMENT_SET_NO":999,"REV_AT_EPOCH":11895,"BSTAR":-0.00010933246,"MEAN_MOTION_DOT":-2.8e-7,"MEAN_MOTION_DDOT":0},{"OBJECT_NAME":"ONEWEB-0561","OBJECT_ID":"2023-068A","EPOCH":"2025-09-05T06:38:07.109952","MEAN_MOTION":13.2077157,"ECCENTRICITY":0.00020946,"INCLINATION":87.9283,"RA_OF_ASC_NODE":331.25,"ARG_OF_PERICENTER":85.2263,"MEAN_ANOMALY":274.9109,"EPHEMERIS_TYPE":0,"CLASSIFICATION_TYPE":"U","NORAD_CAT_ID":56710,"ELEMENT_SET_NO":999,"REV_AT_EPOCH":11189,"BSTAR":-0.00034969306,"MEAN_MOTION_DOT":-1.29e-6,"MEAN_MOTION_DDOT":0},{"OBJECT_NAME":"ONEWEB-0668","OBJECT_ID":"2023-068B","EPOCH":"2025-09-05T03:56:12.080544","MEAN_MOTION":13.16592359,"ECCENTRICITY":0.00021237,"INCLINATION":87.9003,"RA_OF_ASC_NODE":285.5693,"ARG_OF_PERICENTER":108.2994,"MEAN_ANOMALY":251.8368,"EPHEMERIS_TYPE":0,"CLASSIFICATION_TYPE":"U","NORAD_CAT_ID":56711,"ELEMENT_SET_NO":999,"REV_AT_EPOCH":11427,"BSTAR":0.00052200637,"MEAN_MOTION_DOT":2.12e-6,"MEAN_MOTION_DDOT":0},{"OBJECT_NAME":"ONEWEB-0676","OBJECT_ID":"2023-068C","EPOCH":"2025-09-05T05:17:08.200320","MEAN_MOTION":13.16594161,"ECCENTRICITY":0.00021111,"INCLINATION":87.8996,"RA_OF_ASC_NODE":285.5782,"ARG_OF_PERICENTER":84.814,"MEAN_ANOMALY":275.3232,"EPHEMERIS_TYPE":0,"CLASSIFICATION_TYPE":"U","NORAD_CAT_ID":56712,"ELEMENT_SET_NO":999,"REV_AT_EPOCH":11420,"BSTAR":-0.00015994325,"MEAN_MOTION_DOT":-4.8e-7,"MEAN_MOTION_DDOT":0},{"OBJECT_NAME":"ONEWEB-0677","OBJECT_ID":"2023-068D","EPOCH":"2025-09-05T06:22:12.977472","MEAN_MOTION":13.20771024,"ECCENTRICITY":0.00021787,"INCLINATION":87.9284,"RA_OF_ASC_NODE":331.2285,"ARG_OF_PERICENTER":96.9118,"MEAN_ANOMALY":263.2263,"EPHEMERIS_TYPE":0,"CLASSIFICATION_TYPE":"U","NORAD_CAT_ID":56713,"ELEMENT_SET_NO":999,"REV_AT_EPOCH":11219,"BSTAR":0.00016680561,"MEAN_MOTION_DOT":8.1e-7,"MEAN_MOTION_DDOT":0},{"OBJECT_NAME":"ONEWEB-0678","OBJECT_ID":"2023-068E","EPOCH":"2025-09-05T04:09:22.975776","MEAN_MOTION":13.15549016,"ECCENTRICITY":0.00016151,"INCLINATION":87.9056,"RA_OF_ASC_NODE":316.0488,"ARG_OF_PERICENTER":89.204,"MEAN_ANOMALY":270.9275,"EPHEMERIS_TYPE":0,"CLASSIFICATION_TYPE":"U","NORAD_CAT_ID":56714,"ELEMENT_SET_NO":999,"REV_AT_EPOCH":11181,"BSTAR":0.00049515783,"MEAN_MOTION_DOT":1.99e-6,"MEAN_MOTION_DDOT":0},{"OBJECT_NAME":"ONEWEB-0679","OBJECT_ID":"2023-068F","EPOCH":"2025-09-05T02:43:16.391424","MEAN_MOTION":13.16594942,"ECCENTRICITY":0.00024471,"INCLINATION":87.8998,"RA_OF_ASC_NODE":285.5917,"ARG_OF_PERICENTER":96.7917,"MEAN_ANOMALY":263.3492,"EPHEMERIS_TYPE":0,"CLASSIFICATION_TYPE":"U","NORAD_CAT_ID":56715,"ELEMENT_SET_NO":999,"REV_AT_EPOCH":11421,"BSTAR":0.00019007944,"MEAN_MOTION_DOT":8.6e-7,"MEAN_MOTION_DDOT":0},{"OBJECT_NAME":"ONEWEB-0680","OBJECT_ID":"2023-068G","EPOCH":"2025-09-05T04:13:26.718816","MEAN_MOTION":13.21825162,"ECCENTRICITY":0.0002374,"INCLINATION":87.922,"RA_OF_ASC_NODE":300.8372,"ARG_OF_PERICENTER":110.1331,"MEAN_ANOMALY":250.0059,"EPHEMERIS_TYPE":0,"CLASSIFICATION_TYPE":"U","NORAD_CAT_ID":56716,"ELEMENT_SET_NO":999,"REV_AT_EPOCH":11344,"BSTAR":0.00018002884,"MEAN_MOTION_DOT":8.7e-7,"MEAN_MOTION_DDOT":0},{"OBJECT_NAME":"ONEWEB-0681","OBJECT_ID":"2023-068H","EPOCH":"2025-09-05T05:30:40.953888","MEAN_MOTION":13.2182629,"ECCENTRICITY":0.0002783,"INCLINATION":87.9222,"RA_OF_ASC_NODE":300.8432,"ARG_OF_PERICENTER":79.8034,"MEAN_ANOMALY":280.3413,"EPHEMERIS_TYPE":0,"CLASSIFICATION_TYPE":"U","NORAD_CAT_ID":56717,"ELEMENT_SET_NO":999,"REV_AT_EPOCH":11344,"BSTAR":6.83104e-7,"MEAN_MOTION_DOT":1.3e-7,"MEAN_MOTION_DDOT":0},{"OBJECT_NAME":"ONEWEB-0682","OBJECT_ID":"2023-068J","EPOCH":"2025-09-05T04:47:01.427712","MEAN_MOTION":13.15548839,"ECCENTRICITY":0.0002293,"INCLINATION":87.9043,"RA_OF_ASC_NODE":316.0645,"ARG_OF_PERICENTER":107.7407,"MEAN_ANOMALY":252.3974,"EPHEMERIS_TYPE":0,"CLASSIFICATION_TYPE":"U","NORAD_CAT_ID":56718,"ELEMENT_SET_NO":999,"REV_AT_EPOCH":11198,"BSTAR":0.00026164979,"MEAN_MOTION_DOT":1.11e-6,"MEAN_MOTION_DDOT":0},{"OBJECT_NAME":"ONEWEB-0683","OBJECT_ID":"2023-068K","EPOCH":"2025-09-05T03:28:18.881472","MEAN_MOTION":13.15549053,"ECCENTRICITY":0.00020651,"INCLINATION":87.9052,"RA_OF_ASC_NODE":316.0533,"ARG_OF_PERICENTER":105.0839,"MEAN_ANOMALY":255.052,"EPHEMERIS_TYPE":0,"CLASSIFICATION_TYPE":"U","NORAD_CAT_ID":56719,"ELEMENT_SET_NO":999,"REV_AT_EPOCH":11194,"BSTAR":-5.2400398e-5,"MEAN_MOTION_DOT":-7.0e-8,"MEAN_MOTION_DDOT":0},{"OBJECT_NAME":"ONEWEB-0684","OBJECT_ID":"2023-068L","EPOCH":"2025-09-05T05:29:14.015616","MEAN_MOTION":13.15549578,"ECCENTRICITY":4.898e-5,"INCLINATION":87.9036,"RA_OF_ASC_NODE":316.0364,"ARG_OF_PERICENTER":82.1835,"MEAN_ANOMALY":277.9351,"EPHEMERIS_TYPE":0,"CLASSIFICATION_TYPE":"U","NORAD_CAT_ID":56720,"ELEMENT_SET_NO":999,"REV_AT_EPOCH":11178,"BSTAR":3.3264648e-5,"MEAN_MOTION_DOT":2.5e-7,"MEAN_MOTION_DDOT":0},{"OBJECT_NAME":"ONEWEB-0686","OBJECT_ID":"2023-068M","EPOCH":"2025-09-05T02:28:25.512384","MEAN_MOTION":13.16597099,"ECCENTRICITY":0.0001826,"INCLINATION":87.8986,"RA_OF_ASC_NODE":285.6243,"ARG_OF_PERICENTER":103.2551,"MEAN_ANOMALY":256.8784,"EPHEMERIS_TYPE":0,"CLASSIFICATION_TYPE":"U","NORAD_CAT_ID":56721,"ELEMENT_SET_NO":999,"REV_AT_EPOCH":11420,"BSTAR":0.00049437452,"MEAN_MOTION_DOT":2.02e-6,"MEAN_MOTION_DDOT":0},{"OBJECT_NAME":"ONEWEB-0694","OBJECT_ID":"2023-068N","EPOCH":"2025-09-05T03:30:01.281888","MEAN_MOTION":13.16594738,"ECCENTRICITY":0.00021863,"INCLINATION":87.9005,"RA_OF_ASC_NODE":285.5439,"ARG_OF_PERICENTER":104.7345,"MEAN_ANOMALY":255.4028,"EPHEMERIS_TYPE":0,"CLASSIFICATION_TYPE":"U","NORAD_CAT_ID":56722,"ELEMENT_SET_NO":999,"REV_AT_EPOCH":11426,"BSTAR":0.00011048469,"MEAN_MOTION_DOT":5.5e-7,"MEAN_MOTION_DDOT":0}]
